[{"OBJECT_NAME":"GAOFEN-1 03","OBJECT_ID":"2018-031B","EPOCH":"2026-03-07T14:53:17.018304","MEAN_MOTION":14.76473658,"ECCENTRICITY":0.00038144,"INCLINATION":98.0639,"RA_OF_ASC_NODE":129.2445,"ARG_OF_PERICENTER":57.191,"MEAN_ANOMALY":302.9667,"EPHEMERIS_TYPE":0,"CLASSIFICATION_TYPE":"U","NORAD_CAT_ID":43260,"ELEMENT_SET_NO":999,"REV_AT_EPOCH":42770,"BSTAR":0.00018333717,"MEAN_MOTION_DOT":1.225e-5,"MEAN_MOTION_DDOT":0},{"OBJECT_NAME":"GAOFEN-1 04","OBJECT_ID":"2018-031D","EPOCH":"2026-03-07T14:18:20.955168","MEAN_MOTION":14.76431899,"ECCENTRICITY":0.00019205,"INCLINATION":98.0648,"RA_OF_ASC_NODE":129.3988,"ARG_OF_PERICENTER":81.332,"MEAN_ANOMALY":278.8107,"EPHEMERIS_TYPE":0,"CLASSIFICATION_TYPE":"U","NORAD_CAT_ID":43262,"ELEMENT_SET_NO":999,"REV_AT_EPOCH":42769,"BSTAR":0.00019166699,"MEAN_MOTION_DOT":1.281e-5,"MEAN_MOTION_DDOT":0},{"OBJECT_NAME":"SENTINEL-3B","OBJECT_ID":"2018-039A","EPOCH":"2026-03-07T15:23:52.017792","MEAN_MOTION":14.26735652,"ECCENTRICITY":9.549e-5,"INCLINATION":98.6231,"RA_OF_ASC_NODE":135.6055,"ARG_OF_PERICENTER":125.8146,"MEAN_ANOMALY":234.3123,"EPHEMERIS_TYPE":0,"CLASSIFICATION_TYPE":"U","NORAD_CAT_ID":43437,"ELEMENT_SET_NO":999,"REV_AT_EPOCH":40964,"BSTAR":8.9082238e-5,"MEAN_MOTION_DOT":1.72e-6,"MEAN_MOTION_DDOT":0},{"OBJECT_NAME":"GAOFEN-5 01","OBJECT_ID":"2018-043A","EPOCH":"2026-03-07T12:49:36.023808","MEAN_MOTION":14.6052111,"ECCENTRICITY":0.00027247,"INCLINATION":98.4465,"RA_OF_ASC_NODE":36.0526,"ARG_OF_PERICENTER":56.182,"MEAN_ANOMALY":303.9639,"EPHEMERIS_TYPE":0,"CLASSIFICATION_TYPE":"U","NORAD_CAT_ID":43461,"ELEMENT_SET_NO":999,"REV_AT_EPOCH":41685,"BSTAR":0.00015399633,"MEAN_MOTION_DOT":6.98e-6,"MEAN_MOTION_DDOT":0},{"OBJECT_NAME":"GAOFEN-6","OBJECT_ID":"2018-048A","EPOCH":"2026-03-07T15:03:46.426752","MEAN_MOTION":14.76593658,"ECCENTRICITY":0.00130445,"INCLINATION":97.7874,"RA_OF_ASC_NODE":132.9811,"ARG_OF_PERICENTER":140.7409,"MEAN_ANOMALY":219.4749,"EPHEMERIS_TYPE":0,"CLASSIFICATION_TYPE":"U","NORAD_CAT_ID":43484,"ELEMENT_SET_NO":999,"REV_AT_EPOCH":41840,"BSTAR":0.00021266913,"MEAN_MOTION_DOT":1.437e-5,"MEAN_MOTION_DDOT":0},{"OBJECT_NAME":"GAOFEN-11 01","OBJECT_ID":"2018-063A","EPOCH":"2026-03-07T14:41:15.268128","MEAN_MOTION":15.52182823,"ECCENTRICITY":0.00039815,"INCLINATION":97.1416,"RA_OF_ASC_NODE":133.9439,"ARG_OF_PERICENTER":10.4925,"MEAN_ANOMALY":349.6411,"EPHEMERIS_TYPE":0,"CLASSIFICATION_TYPE":"U","NORAD_CAT_ID":43585,"ELEMENT_SET_NO":999,"REV_AT_EPOCH":42457,"BSTAR":0.00042082195,"MEAN_MOTION_DOT":0.00025439,"MEAN_MOTION_DDOT":0},{"OBJECT_NAME":"ICESAT-2","OBJECT_ID":"2018-070A","EPOCH":"2026-03-07T14:19:52.471776","MEAN_MOTION":15.28309719,"ECCENTRICITY":0.00035437,"INCLINATION":91.9988,"RA_OF_ASC_NODE":263.6056,"ARG_OF_PERICENTER":127.5616,"MEAN_ANOMALY":232.5956,"EPHEMERIS_TYPE":0,"CLASSIFICATION_TYPE":"U","NORAD_CAT_ID":43613,"ELEMENT_SET_NO":999,"REV_AT_EPOCH":41694,"BSTAR":0.00015257869,"MEAN_MOTION_DOT":4.207e-5,"MEAN_MOTION_DDOT":0},{"OBJECT_NAME":"HYSIS","OBJECT_ID":"2018-096A","EPOCH":"2026-03-07T15:19:22.791072","MEAN_MOTION":14.78652138,"ECCENTRICITY":0.00017723,"INCLINATION":97.9943,"RA_OF_ASC_NODE":134.1357,"ARG_OF_PERICENTER":98.6814,"MEAN_ANOMALY":261.4598,"EPHEMERIS_TYPE":0,"CLASSIFICATION_TYPE":"U","NORAD_CAT_ID":43719,"ELEMENT_SET_NO":999,"REV_AT_EPOCH":39241,"BSTAR":0.00021036092,"MEAN_MOTION_DOT":1.489e-5,"MEAN_MOTION_DDOT":0},{"OBJECT_NAME":"KAZSTSAT","OBJECT_ID":"2018-099AB","EPOCH":"2026-03-07T14:48:45.770688","MEAN_MOTION":14.99615504,"ECCENTRICITY":0.00067864,"INCLINATION":97.4401,"RA_OF_ASC_NODE":103.0998,"ARG_OF_PERICENTER":17.4441,"MEAN_ANOMALY":342.7015,"EPHEMERIS_TYPE":0,"CLASSIFICATION_TYPE":"U","NORAD_CAT_ID":43783,"ELEMENT_SET_NO":999,"REV_AT_EPOCH":39608,"BSTAR":0.00012435311,"MEAN_MOTION_DOT":1.475e-5,"MEAN_MOTION_DDOT":0},{"OBJECT_NAME":"SAUDISAT 5A","OBJECT_ID":"2018-102A","EPOCH":"2026-03-07T15:02:45.189024","MEAN_MOTION":15.26901463,"ECCENTRICITY":0.00112593,"INCLINATION":97.3189,"RA_OF_ASC_NODE":130.1847,"ARG_OF_PERICENTER":129.0102,"MEAN_ANOMALY":231.2141,"EPHEMERIS_TYPE":0,"CLASSIFICATION_TYPE":"U","NORAD_CAT_ID":43831,"ELEMENT_SET_NO":999,"REV_AT_EPOCH":40017,"BSTAR":0.00033323555,"MEAN_MOTION_DOT":8.75e-5,"MEAN_MOTION_DDOT":0},{"OBJECT_NAME":"SAUDISAT 5B","OBJECT_ID":"2018-102C","EPOCH":"2026-03-07T14:22:43.332096","MEAN_MOTION":15.27210773,"ECCENTRICITY":0.00119402,"INCLINATION":97.3285,"RA_OF_ASC_NODE":133.0457,"ARG_OF_PERICENTER":131.4724,"MEAN_ANOMALY":228.7542,"EPHEMERIS_TYPE":0,"CLASSIFICATION_TYPE":"U","NORAD_CAT_ID":43833,"ELEMENT_SET_NO":999,"REV_AT_EPOCH":40028,"BSTAR":0.00033289739,"MEAN_MOTION_DOT":8.825e-5,"MEAN_MOTION_DDOT":0},{"OBJECT_NAME":"GAOFEN-10R","OBJECT_ID":"2019-066A","EPOCH":"2026-03-07T14:34:14.861280","MEAN_MOTION":14.8314571,"ECCENTRICITY":0.00081247,"INCLINATION":98.0398,"RA_OF_ASC_NODE":19.5217,"ARG_OF_PERICENTER":111.837,"MEAN_ANOMALY":248.3709,"EPHEMERIS_TYPE":0,"CLASSIFICATION_TYPE":"U","NORAD_CAT_ID":44622,"ELEMENT_SET_NO":999,"REV_AT_EPOCH":34732,"BSTAR":0.00031241566,"MEAN_MOTION_DOT":2.494e-5,"MEAN_MOTION_DDOT":0},{"OBJECT_NAME":"CARTOSAT-3","OBJECT_ID":"2019-081A","EPOCH":"2026-03-07T14:17:04.414272","MEAN_MOTION":15.19154897,"ECCENTRICITY":0.00128506,"INCLINATION":97.4423,"RA_OF_ASC_NODE":130.0348,"ARG_OF_PERICENTER":144.138,"MEAN_ANOMALY":216.072,"EPHEMERIS_TYPE":0,"CLASSIFICATION_TYPE":"U","NORAD_CAT_ID":44804,"ELEMENT_SET_NO":999,"REV_AT_EPOCH":34804,"BSTAR":0.00034887197,"MEAN_MOTION_DOT":7.282e-5,"MEAN_MOTION_DDOT":0},{"OBJECT_NAME":"GAOFEN-12 01","OBJECT_ID":"2019-082A","EPOCH":"2026-03-07T15:03:13.162752","MEAN_MOTION":14.80362647,"ECCENTRICITY":0.00018805,"INCLINATION":97.8143,"RA_OF_ASC_NODE":75.6797,"ARG_OF_PERICENTER":59.4347,"MEAN_ANOMALY":300.7051,"EPHEMERIS_TYPE":0,"CLASSIFICATION_TYPE":"U","NORAD_CAT_ID":44819,"ELEMENT_SET_NO":999,"REV_AT_EPOCH":33906,"BSTAR":0.00010614266,"MEAN_MOTION_DOT":7.59e-6,"MEAN_MOTION_DDOT":0},{"OBJECT_NAME":"CSG-1","OBJECT_ID":"2019-092A","EPOCH":"2026-03-07T15:36:43.669152","MEAN_MOTION":14.8214539,"ECCENTRICITY":0.00014136,"INCLINATION":97.8865,"RA_OF_ASC_NODE":251.7178,"ARG_OF_PERICENTER":85.9454,"MEAN_ANOMALY":274.1921,"EPHEMERIS_TYPE":0,"CLASSIFICATION_TYPE":"U","NORAD_CAT_ID":44873,"ELEMENT_SET_NO":999,"REV_AT_EPOCH":33643,"BSTAR":0.00011714243,"MEAN_MOTION_DOT":8.8e-6,"MEAN_MOTION_DDOT":0},{"OBJECT_NAME":"NEMO-HD","OBJECT_ID":"2020-061F","EPOCH":"2026-03-07T14:36:43.520256","MEAN_MOTION":15.42444108,"ECCENTRICITY":0.00024676,"INCLINATION":97.2043,"RA_OF_ASC_NODE":129.6804,"ARG_OF_PERICENTER":80.4706,"MEAN_ANOMALY":279.6821,"EPHEMERIS_TYPE":0,"CLASSIFICATION_TYPE":"U","NORAD_CAT_ID":46277,"ELEMENT_SET_NO":999,"REV_AT_EPOCH":30631,"BSTAR":0.00033698149,"MEAN_MOTION_DOT":0.00014504,"MEAN_MOTION_DDOT":0},{"OBJECT_NAME":"SENTINEL-6A","OBJECT_ID":"2020-086A","EPOCH":"2026-03-07T12:12:33.820992","MEAN_MOTION":12.80929673,"ECCENTRICITY":0.00077998,"INCLINATION":66.0447,"RA_OF_ASC_NODE":346.2415,"ARG_OF_PERICENTER":270.9049,"MEAN_ANOMALY":89.1072,"EPHEMERIS_TYPE":0,"CLASSIFICATION_TYPE":"U","NORAD_CAT_ID":46984,"ELEMENT_SET_NO":999,"REV_AT_EPOCH":24730,"BSTAR":9.6082445e-5,"MEAN_MOTION_DOT":-3.9e-7,"MEAN_MOTION_DDOT":0}]
