GAOFEN-1 03             
1 43260U 18031B   26066.62033586  .00001225  00000+0  18334-3 0  9992
2 43260  98.0639 129.2445 0003814  57.1910 302.9667 14.76473658427702
GAOFEN-1 04             
1 43262U 18031D   26066.59607587  .00001281  00000+0  19167-3 0  9995
2 43262  98.0648 129.3988 0001920  81.3320 278.8107 14.76431899427696
SENTINEL-3B             
1 43437U 18039A   26066.64157428  .00000172  00000+0  89082-4 0  9999
2 43437  98.6231 135.6055 0000954 125.8146 234.3123 14.26735652409644
GAOFEN-5 01             
1 43461U 18043A   26066.53444472  .00000698  00000+0  15400-3 0  9992
2 43461  98.4465  36.0526 0002724  56.1820 303.9639 14.60521110416853
GAOFEN-6                
1 43484U 18048A   26066.62762068  .00001437  00000+0  21267-3 0  9996
2 43484  97.7874 132.9811 0013044 140.7409 219.4749 14.76593658418406
GAOFEN-11 01            
1 43585U 18063A   26066.61198227  .00025439  00000+0  42082-3 0  9990
2 43585  97.1416 133.9439 0003981  10.4925 349.6411 15.52182823424576
ICESAT-2                
1 43613U 18070A   26066.59713509  .00004207  00000+0  15258-3 0  9998
2 43613  91.9988 263.6056 0003543 127.5616 232.5956 15.28309719416945
HYSIS                   
1 43719U 18096A   26066.63845823  .00001489  00000+0  21036-3 0  9993
2 43719  97.9943 134.1357 0001772  98.6814 261.4598 14.78652138392413
KAZSTSAT                
1 43783U 18099AB  26066.61719642  .00001475  00000+0  12435-3 0  9992
2 43783  97.4401 103.0998 0006786  17.4441 342.7015 14.99615504396082
SAUDISAT 5A             
1 43831U 18102A   26066.62691191  .00008750  00000+0  33324-3 0  9993
2 43831  97.3189 130.1847 0011259 129.0102 231.2141 15.26901463400178
SAUDISAT 5B             
1 43833U 18102C   26066.59911264  .00008825  00000+0  33290-3 0  9992
2 43833  97.3285 133.0457 0011940 131.4724 228.7542 15.27210773400286
GAOFEN-10R              
1 44622U 19066A   26066.60711645  .00002494  00000+0  31242-3 0  9993
2 44622  98.0398  19.5217 0008124 111.8370 248.3709 14.83145710347324
CARTOSAT-3              
1 44804U 19081A   26066.59518998  .00007282  00000+0  34887-3 0  9994
2 44804  97.4423 130.0348 0012850 144.1380 216.0720 15.19154897348044
GAOFEN-12 01            
1 44819U 19082A   26066.62723568  .00000759  00000+0  10614-3 0  9990
2 44819  97.8143  75.6797 0001880  59.4347 300.7051 14.80362647339068
CSG-1                   
1 44873U 19092A   26066.65050543  .00000880  00000+0  11714-3 0  9997
2 44873  97.8865 251.7178 0001413  85.9454 274.1921 14.82145390336438
NEMO-HD                 
1 46277U 20061F   26066.60883704  .00014504  00000+0  33698-3 0  9996
2 46277  97.2043 129.6804 0002467  80.4706 279.6821 15.42444108306318
SENTINEL-6A             
1 46984U 20086A   26066.50872478 -.00000039  00000+0  96082-4 0  9999
2 46984  66.0447 346.2415 0007799 270.9049  89.1072 12.80929673247308
